      2.10          N: GNSS NAV DATA                        RINEX VERSION / TYPE
fic2rin                                 07/19/2022 00:17:38 PGM / RUN BY / DATE
                                                            END OF HEADER
17 22  7 19  0  0  0.0  .638437457383D-03  .443378667114D-11  .000000000000D+00
     .660000000000D+02 -.200000000000D+02  .377694303912D-08  .239771173955D+01
    -.949949026108D-06  .135590259451D-01  .932812690735D-05  .515358624077D+04
     .172800000000D+06  .199303030968D-06  .619482563158D+00  .931322574615D-08
     .978381169869D+00  .203718750000D+03 -.148863929658D+01 -.755638618239D-08
    -.351800368183D-09  .100000000000D+01  .221900000000D+04  .000000000000D+00
     .340000000000D+01  .000000000000D+00 -.111758708954D-07  .660000000000D+02
     .165600000000D+06  .400000000000D+01
25 22  7 19  0  0  0.0  .350753311068D-03  .443378667114D-11  .000000000000D+00
     .830000000000D+02  .287812500000D+02  .483877298289D-08 -.138535064000D+01
     .149570405483D-05  .104556840379D-01  .526569783688D-05  .515364147758D+04
     .172800000000D+06  .258907675743D-06 -.496884467564D+00  .137835741043D-06
     .956174203625D+00  .275968750000D+03  .100555566463D+01 -.828391648694D-08
    -.186436337250D-09  .100000000000D+01  .221900000000D+04  .000000000000D+00
     .240000000000D+01  .000000000000D+00  .558793544769D-08  .830000000000D+02
     .165600000000D+06  .400000000000D+01
14 22  7 19  0  0  0.0 -.111644156277D-03  .568434188608D-12  .000000000000D+00
     .205000000000D+03  .198750000000D+02  .494806324955D-08 -.119078660383D+01
     .104494392872D-05  .213618541602D-02  .529550015926D-05  .515365263557D+04
     .172800000000D+06 -.409781932831D-07 -.452026251245D+00 -.143423676491D-06
     .952077848675D+00  .276531250000D+03 -.308968690403D+01 -.834320467082D-08
    -.183936233111D-09  .100000000000D+01  .221900000000D+04  .000000000000D+00
     .240000000000D+01  .000000000000D+00 -.791624188423D-08  .205000000000D+03
     .165600000000D+06  .400000000000D+01
23 22  7 19  0  0  0.0 -.335099175572D-04 -.159161572810D-11  .000000000000D+00
     .560000000000D+02 -.169062500000D+02  .463447875893D-08 -.565915569181D+00
    -.843778252602D-06  .238027446903D-02  .459142029285D-05  .515371630096D+04
     .172800000000D+06 -.558793544769D-08  .262414377104D+01  .298023223877D-07
     .969648204323D+00  .294031250000D+03  .299148198287D+01 -.828820237975D-08
     .231795369493D-09  .100000000000D+01  .221900000000D+04  .000000000000D+00
     .240000000000D+01  .000000000000D+00 -.838190317154D-08  .824000000000D+03
     .165600000000D+06  .400000000000D+01
18 22  7 19  0  0  0.0  .109174288809D-03 -.115960574476D-10  .000000000000D+00
     .330000000000D+02  .327187500000D+02  .412267172583D-08  .528131579966D+00
     .177510082722D-05  .257796794176D-02  .816397368908D-05  .515373085213D+04
     .172800000000D+06  .707805156708D-07  .162431512640D+01  .000000000000D+00
     .971776903734D+00  .228562500000D+03  .300814286868D+01 -.798211820155D-08
     .335371112410D-09  .100000000000D+01  .221900000000D+04  .000000000000D+00
     .240000000000D+01  .000000000000D+00 -.838190317154D-08  .545000000000D+03
     .165600000000D+06  .400000000000D+01
28 22  7 19  0  0  0.0  .335532240570D-03  .318323145621D-11  .000000000000D+00
     .510000000000D+02  .183750000000D+02  .451768817985D-08  .285294670850D+01
     .103935599327D-05  .164959117537D-01  .520236790180D-05  .515366557121D+04
     .172800000000D+06  .160187482834D-06 -.396392540232D+00  .596046447754D-07
     .967774197486D+00  .281093750000D+03 -.127401883787D+01 -.790568644643D-08
    -.251081887140D-09  .100000000000D+01  .221900000000D+04  .000000000000D+00
     .240000000000D+01  .630000000000D+02 -.111758708954D-07  .510000000000D+02
     .165600000000D+06  .400000000000D+01
22 22  7 18 23 59 44.0  .294685363770D-03  .648014975013D-11  .000000000000D+00
     .200000000000D+01 -.608125000000D+02  .446840041253D-08  .222711863430D+01
    -.331178307533D-05  .134326631669D-01  .939890742302D-05  .515372153282D+04
     .172784000000D+06  .614672899246D-07 -.250124105494D+01 -.214204192162D-06
     .961758649085D+00  .196593750000D+03 -.184588608884D+01 -.779318176016D-08
    -.175721605224D-09  .100000000000D+01  .221900000000D+04  .000000000000D+00
     .240000000000D+01  .000000000000D+00 -.791624188423D-08  .200000000000D+01
     .169200000000D+06  .400000000000D+01
13 22  7 18 23 59 44.0  .351084396243D-03  .738964445191D-11  .000000000000D+00
     .490000000000D+02 -.632187500000D+02  .442875590403D-08  .194943039035D+01
    -.326521694660D-05  .613650376908D-02  .102464109659D-04  .515368186569D+04
     .172784000000D+06 -.134110450745D-06 -.244852127193D+01 -.124797224998D-06
     .968982674612D+00  .186968750000D+03  .918150826884D+00 -.793140180329D-08
    -.134291308058D-09  .100000000000D+01  .221900000000D+04  .000000000000D+00
     .240000000000D+01  .000000000000D+00 -.111758708954D-07  .490000000000D+02
     .169380000000D+06  .400000000000D+01
17 22  7 18 23 59 44.0  .638439320028D-03  .443378667114D-11  .000000000000D+00
     .500000000000D+01 -.200000000000D+02  .377694303912D-08  .239537822430D+01
    -.949949026108D-06  .135590321152D-01  .932812690735D-05  .515358623886D+04
     .172784000000D+06  .199303030968D-06  .619482680192D+00  .931322574615D-08
     .978381159628D+00  .203718750000D+03 -.148863965061D+01 -.755638618239D-08
    -.351800368183D-09  .100000000000D+01  .221900000000D+04  .000000000000D+00
     .240000000000D+01  .000000000000D+00 -.111758708954D-07  .500000000000D+01
     .169500000000D+06  .400000000000D+01
